{"type": "FeatureCollection", "features": [ {"type": "Feature", "properties": {"norad_id": 66455, "name": "ATLAS 5 CENTAUR R/B", "group": "last-30-days", "lat": 2.202651827489004, "lon": -47.24218493955763, "alt_km": 23352.772347242488, "timestamp": "2025-12-10T14:53:35.945712+00:00", "meta": {"OBJECT_NAME": "ATLAS 5 CENTAUR R/B", "OBJECT_ID": "2025-261B", "EPOCH": "2025-12-10T06:41:13.580160", "MEAN_MOTION": 2.28259697, "ECCENTRICITY": 0.23295009, "INCLINATION": 6.1488, "RA_OF_ASC_NODE": 291.8627, "ARG_OF_PERICENTER": 185.9895, "MEAN_ANOMALY": 282.35, "EPHEMERIS_TYPE": 0, "CLASSIFICATION_TYPE": "U", "NORAD_CAT_ID": 66455, "ELEMENT_SET_NO": 999, "REV_AT_EPOCH": 59, "BSTAR": 0, "MEAN_MOTION_DOT": -8e-07, "MEAN_MOTION_DDOT": 0}, "tle": {"line1": "1 66455U 25261B   25344.27862940 -.00000080  00000+0  00000+0 0  9995", "line2": "2 66455   6.1488 291.8627 2329500 185.9895 282.3500  2.28259697   590"}}, "geometry": {"type": "Point", "coordinates": [-47.24218493955763, 2.202651827489004]}}, {"type": "Feature", "properties": {"norad_id": 66456, "name": "STARLINK-35643", "group": "last-30-days", "lat": -42.59585960766838, "lon": -15.55127891260383, "alt_km": 446.6525279610287, "timestamp": "2025-12-10T14:53:35.945722+00:00", "meta": {"OBJECT_NAME": "STARLINK-35643", "OBJECT_ID": "2025-262A", "EPOCH": "2025-12-10T06:00:02.000160", "MEAN_MOTION": 15.40614679, "ECCENTRICITY": 0.0001185, "INCLINATION": 43, "RA_OF_ASC_NODE": 85.9569, "ARG_OF_PERICENTER": 276.7564, "MEAN_ANOMALY": 88.8099, "EPHEMERIS_TYPE": 0, "CLASSIFICATION_TYPE": "U", "NORAD_CAT_ID": 66456, "ELEMENT_SET_NO": 999, "REV_AT_EPOCH": 523, "BSTAR": 0.0024712127, "MEAN_MOTION_DOT": 0.00104048, "MEAN_MOTION_DDOT": 0}, "tle": {"line1": "1 66456U 25262A   25344.25002315  .00104048  00000+0  24712-2 0  9994", "line2": "2 66456  43.0000  85.9569 0001185 276.7564  88.8099 15.40614679  5235"}}, "geometry": {"type": "Point", "coordinates": [-15.55127891260383, -42.59585960766838]}}, {"type": "Feature", "properties": {"norad_id": 66457, "name": "STARLINK-35466", "group": "last-30-days", "lat": -40.42803970706864, "lon": 17.666956750073396, "alt_km": 446.625046012683, "timestamp": "2025-12-10T14:53:35.945731+00:00", "meta": {"OBJECT_NAME": "STARLINK-35466", "OBJECT_ID": "2025-262B", "EPOCH": "2025-12-10T06:00:02.000160", "MEAN_MOTION": 15.40607894, "ECCENTRICITY": 9.766e-05, "INCLINATION": 43.0001, "RA_OF_ASC_NODE": 85.896, "ARG_OF_PERICENTER": 288.4008, "MEAN_ANOMALY": 102.0483, "EPHEMERIS_TYPE": 0, "CLASSIFICATION_TYPE": "U", "NORAD_CAT_ID": 66457, "ELEMENT_SET_NO": 999, "REV_AT_EPOCH": 523, "BSTAR": 0.0032222973, "MEAN_MOTION_DOT": 0.00136313, "MEAN_MOTION_DDOT": 0}, "tle": {"line1": "1 66457U 25262B   25344.25002315  .00136313  00000+0  32223-2 0  9991", "line2": "2 66457  43.0001  85.8960 0000976 288.4008 102.0483 15.40607894  5238"}}, "geometry": {"type": "Point", "coordinates": [17.666956750073396, -40.42803970706864]}}, {"type": "Feature", "properties": {"norad_id": 66458, "name": "STARLINK-35684", "group": "last-30-days", "lat": -42.7385527553912, "lon": 1.2227924337743739, "alt_km": 446.63396941035535, "timestamp": "2025-12-10T14:53:35.945743+00:00", "meta": {"OBJECT_NAME": "STARLINK-35684", "OBJECT_ID": "2025-262C", "EPOCH": "2025-12-10T06:00:02.000160", "MEAN_MOTION": 15.40561239, "ECCENTRICITY": 0.0001337, "INCLINATION": 42.9999, "RA_OF_ASC_NODE": 85.9252, "ARG_OF_PERICENTER": 283.6946, "MEAN_ANOMALY": 94.2854, "EPHEMERIS_TYPE": 0, "CLASSIFICATION_TYPE": "U", "NORAD_CAT_ID": 66458, "ELEMENT_SET_NO": 999, "REV_AT_EPOCH": 523, "BSTAR": 0.0031655484, "MEAN_MOTION_DOT": 0.00133653, "MEAN_MOTION_DDOT": 0}, "tle": {"line1": "1 66458U 25262C   25344.25002315  .00133653  00000+0  31655-2 0  9994", "line2": "2 66458  42.9999  85.9252 0001337 283.6946  94.2854 15.40561239  5234"}}, "geometry": {"type": "Point", "coordinates": [1.2227924337743739, -42.7385527553912]}}, {"type": "Feature", "properties": {"norad_id": 66459, "name": "STARLINK-35449", "group": "last-30-days", "lat": -36.017775853777714, "lon": 32.451468479489925, "alt_km": 446.4718478217901, "timestamp": "2025-12-10T14:53:35.945752+00:00", "meta": {"OBJECT_NAME": "STARLINK-35449", "OBJECT_ID": "2025-262D", "EPOCH": "2025-12-10T06:00:02.000160", "MEAN_MOTION": 15.4060324, "ECCENTRICITY": 0.00012189, "INCLINATION": 43, "RA_OF_ASC_NODE": 85.8644, "ARG_OF_PERICENTER": 254.7398, "MEAN_ANOMALY": 148.1485, "EPHEMERIS_TYPE": 0, "CLASSIFICATION_TYPE": "U", "NORAD_CAT_ID": 66459, "ELEMENT_SET_NO": 999, "REV_AT_EPOCH": 523, "BSTAR": 0.0033611716, "MEAN_MOTION_DOT": 0.00142291, "MEAN_MOTION_DDOT": 0}, "tle": {"line1": "1 66459U 25262D   25344.25002315  .00142291  00000+0  33612-2 0  9998", "line2": "2 66459  43.0000  85.8644 0001218 254.7398 148.1485 15.40603240  5230"}}, "geometry": {"type": "Point", "coordinates": [32.451468479489925, -36.017775853777714]}}, {"type": "Feature", "properties": {"norad_id": 66460, "name": "STARLINK-35424", "group": "last-30-days", "lat": -30.004713316365162, "lon": 45.40559641238644, "alt_km": 445.99511443312804, "timestamp": "2025-12-10T14:53:35.945761+00:00", "meta": {"OBJECT_NAME": "STARLINK-35424", "OBJECT_ID": "2025-262E", "EPOCH": "2025-12-10T06:00:02.000160", "MEAN_MOTION": 15.40619049, "ECCENTRICITY": 0.00015163, "INCLINATION": 43.0003, "RA_OF_ASC_NODE": 85.8342, "ARG_OF_PERICENTER": 263.1249, "MEAN_ANOMALY": 152.18, "EPHEMERIS_TYPE": 0, "CLASSIFICATION_TYPE": "U", "NORAD_CAT_ID": 66460, "ELEMENT_SET_NO": 999, "REV_AT_EPOCH": 523, "BSTAR": 0.0031943626, "MEAN_MOTION_DOT": 0.00135158, "MEAN_MOTION_DDOT": 0}, "tle": {"line1": "1 66460U 25262E   25344.25002315  .00135158  00000+0  31944-2 0  9990", "line2": "2 66460  43.0003  85.8342 0001516 263.1249 152.1800 15.40619049  5230"}}, "geometry": {"type": "Point", "coordinates": [45.40559641238644, -30.004713316365162]}}, {"type": "Feature", "properties": {"norad_id": 66461, "name": "STARLINK-35132", "group": "last-30-days", "lat": -22.88399994718035, "lon": 56.73535674898457, "alt_km": 445.2040476852135, "timestamp": "2025-12-10T14:53:35.945772+00:00", "meta": {"OBJECT_NAME": "STARLINK-35132", "OBJECT_ID": "2025-262F", "EPOCH": "2025-12-10T06:00:02.000160", "MEAN_MOTION": 15.4070234, "ECCENTRICITY": 0.0001944, "INCLINATION": 43.0003, "RA_OF_ASC_NODE": 85.8042, "ARG_OF_PERICENTER": 282.5861, "MEAN_ANOMALY": 145.0842, "EPHEMERIS_TYPE": 0, "CLASSIFICATION_TYPE": "U", "NORAD_CAT_ID": 66461, "ELEMENT_SET_NO": 999, "REV_AT_EPOCH": 523, "BSTAR": 0.00015610682, "MEAN_MOTION_DOT": 6.223e-05, "MEAN_MOTION_DDOT": 0}, "tle": {"line1": "1 66461U 25262F   25344.25002315  .00006223  00000+0  15611-3 0  9995", "line2": "2 66461  43.0003  85.8042 0001944 282.5861 145.0842 15.40702340  5232"}}, "geometry": {"type": "Point", "coordinates": [56.73535674898457, -22.88399994718035]}}, {"type": "Feature", "properties": {"norad_id": 66462, "name": "STARLINK-35499", "group": "last-30-days", "lat": -15.00848604582189, "lon": 66.91614488310496, "alt_km": 445.27358156780156, "timestamp": "2025-12-10T14:53:35.945781+00:00", "meta": {"OBJECT_NAME": "STARLINK-35499", "OBJECT_ID": "2025-262G", "EPOCH": "2025-12-10T06:00:02.000160", "MEAN_MOTION": 15.40626104, "ECCENTRICITY": 0.00015027, "INCLINATION": 43.0002, "RA_OF_ASC_NODE": 85.7728, "ARG_OF_PERICENTER": 261.6413, "MEAN_ANOMALY": 178.5511, "EPHEMERIS_TYPE": 0, "CLASSIFICATION_TYPE": "U", "NORAD_CAT_ID": 66462, "ELEMENT_SET_NO": 999, "REV_AT_EPOCH": 523, "BSTAR": 0.0020742724, "MEAN_MOTION_DOT": 0.00087125, "MEAN_MOTION_DDOT": 0}, "tle": {"line1": "1 66462U 25262G   25344.25002315  .00087125  00000+0  20743-2 0  9997", "line2": "2 66462  43.0002  85.7728 0001502 261.6413 178.5511 15.40626104  5230"}}, "geometry": {"type": "Point", "coordinates": [66.91614488310496, -15.00848604582189]}}, {"type": "Feature", "properties": {"norad_id": 66463, "name": "STARLINK-35463", "group": "last-30-days", "lat": 1.7885256070235929, "lon": 85.49755821853978, "alt_km": 443.2975601109756, "timestamp": "2025-12-10T14:53:35.945790+00:00", "meta": {"OBJECT_NAME": "STARLINK-35463", "OBJECT_ID": "2025-262H", "EPOCH": "2025-12-10T06:00:02.000160", "MEAN_MOTION": 15.42765844, "ECCENTRICITY": 0.00014216, "INCLINATION": 43.0005, "RA_OF_ASC_NODE": 85.7163, "ARG_OF_PERICENTER": 286.8416, "MEAN_ANOMALY": 176.8464, "EPHEMERIS_TYPE": 0, "CLASSIFICATION_TYPE": "U", "NORAD_CAT_ID": 66463, "ELEMENT_SET_NO": 999, "REV_AT_EPOCH": 523, "BSTAR": -0.063146287, "MEAN_MOTION_DOT": -0.02499487, "MEAN_MOTION_DDOT": 0}, "tle": {"line1": "1 66463U 25262H   25344.25002315 -.02499487  00000+0 -63146-1 0  9993", "line2": "2 66463  43.0005  85.7163 0001421 286.8416 176.8464 15.42765844  5234"}}, "geometry": {"type": "Point", "coordinates": [85.49755821853978, 1.7885256070235929]}}, {"type": "Feature", "properties": {"norad_id": 66464, "name": "STARLINK-35435", "group": "last-30-days", "lat": -6.748674282781099, "lon": 76.31173194013347, "alt_km": 444.2731439597501, "timestamp": "2025-12-10T14:53:35.945799+00:00", "meta": {"OBJECT_NAME": "STARLINK-35435", "OBJECT_ID": "2025-262J", "EPOCH": "2025-12-10T06:00:02.000160", "MEAN_MOTION": 15.40573446, "ECCENTRICITY": 0.00019563, "INCLINATION": 43.0006, "RA_OF_ASC_NODE": 85.7426, "ARG_OF_PERICENTER": 279.6322, "MEAN_ANOMALY": 173.0154, "EPHEMERIS_TYPE": 0, "CLASSIFICATION_TYPE": "U", "NORAD_CAT_ID": 66464, "ELEMENT_SET_NO": 999, "REV_AT_EPOCH": 523, "BSTAR": 0.0027499524, "MEAN_MOTION_DOT": 0.00115842, "MEAN_MOTION_DDOT": 0}, "tle": {"line1": "1 66464U 25262J   25344.25002315  .00115842  00000+0  27500-2 0  9995", "line2": "2 66464  43.0006  85.7426 0001956 279.6322 173.0154 15.40573446  5235"}}, "geometry": {"type": "Point", "coordinates": [76.31173194013347, -6.748674282781099]}}]}